HERMES-3                
1 63835U 25052BR  26068.93751242  .00020316  00000+0  69958-3 0  9995
2 63835  97.3987 324.6131 0007993 112.9583 247.2502 15.30039785 54863
STARLINK-35694          
1 66389U 25257K   26068.66949557  .00024476  00000+0  83579-3 0  9993
2 66389  53.1607 216.8869 0001268  78.5683 281.5460 15.30200096 19732
